IRIDIUM 144             
1 43249U 18030A   25364.04193522  .00000467  00000+0  15971-3 0  9992
2 43249  86.3965   1.1101 0002322  88.4075 271.7387 14.34218862405896
IRIDIUM 149             
1 43250U 18030B   25364.04827846  .00000374  00000+0  12658-3 0  9993
2 43250  86.3963   1.0762 0002195  89.4750 270.6697 14.34218218405917
IRIDIUM 157             
1 43251U 18030C   25364.06730507  .00000455  00000+0  15523-3 0  9997
2 43251  86.3966   1.1180 0002056  85.9189 274.2242 14.34218795405892
IRIDIUM 140             
1 43252U 18030D   25364.08633360  .00000333  00000+0  11178-3 0  9996
2 43252  86.3966   1.1229 0002357  89.9561 270.1905 14.34218867405957
IRIDIUM 145             
1 43253U 18030E   25364.07364938  .00000390  00000+0  13231-3 0  9993
2 43253  86.3965   1.1008 0002510  86.0599 274.0884 14.34218642405884
IRIDIUM 146             
1 43254U 18030F   25364.05462895  .00000455  00000+0  15535-3 0  9994
2 43254  86.3965   1.1214 0002370  87.7945 272.3522 14.34221772405890
IRIDIUM 148             
1 43255U 18030G   25364.09267595  .00000498  00000+0  17061-3 0  9992
2 43255  86.3968   1.1461 0002161  86.8471 273.2972 14.34219274405938
IRIDIUM 142             
1 43256U 18030H   25364.06095627  .00000378  00000+0  12780-3 0  9995
2 43256  86.3965   1.0546 0002559  86.3250 273.8238 14.34222045405896
